[Satellite]
VERSION=1.1
NAME=CZ-4B R/B
NICKNAME=CZ-4B R/B
TLE1=1 28471U 04044B   11059.91320920  .00005737  00000-0  11634-3 0  8793
TLE2=2 28471  96.9605  64.6033 0090117 256.2379 102.8837 15.42405485353539
